[{"OBJECT_NAME":"LUSAT (LO-19)","OBJECT_ID":"1990-005G","EPOCH":"2026-03-09T14:54:14.260896","MEAN_MOTION":14.34087969,"ECCENTRICITY":0.001234,"INCLINATION":98.8938,"RA_OF_ASC_NODE":87.6461,"ARG_OF_PERICENTER":134.6824,"MEAN_ANOMALY":225.5367,"EPHEMERIS_TYPE":0,"CLASSIFICATION_TYPE":"U","NORAD_CAT_ID":20442,"ELEMENT_SET_NO":999,"REV_AT_EPOCH":88812,"BSTAR":8.4338e-5,"MEAN_MOTION_DOT":1.89e-6,"MEAN_MOTION_DDOT":0},{"OBJECT_NAME":"COSMOS 1937","OBJECT_ID":"1988-029A","EPOCH":"2026-03-09T21:48:41.896800","MEAN_MOTION":14.36122746,"ECCENTRICITY":0.00231923,"INCLINATION":74.0444,"RA_OF_ASC_NODE":286.8147,"ARG_OF_PERICENTER":35.2091,"MEAN_ANOMALY":70.0638,"EPHEMERIS_TYPE":0,"CLASSIFICATION_TYPE":"U","NORAD_CAT_ID":19038,"ELEMENT_SET_NO":999,"REV_AT_EPOCH":98549,"BSTAR":5.5374425e-5,"MEAN_MOTION_DOT":1.36e-6,"MEAN_MOTION_DDOT":0}]
